{"type": "FeatureCollection", "features": [ {"type": "Feature", "properties": {"norad_id": 29808, "name": "FENGYUN 1C DEB", "group": "fengyun-1c-debris", "lat": 80.89784665712746, "lon": -175.1475551204932, "alt_km": 447.47359631381823, "timestamp": "2025-12-27T09:28:56.747794+00:00", "meta": {"OBJECT_NAME": "FENGYUN 1C DEB", "OBJECT_ID": "1999-025DA", "EPOCH": "2025-12-27T01:18:29.817792", "MEAN_MOTION": 15.32160948, "ECCENTRICITY": 0.0019864, "INCLINATION": 99.0109, "RA_OF_ASC_NODE": 282.3405, "ARG_OF_PERICENTER": 82.77, "MEAN_ANOMALY": 290.7584, "EPHEMERIS_TYPE": 0, "CLASSIFICATION_TYPE": "U", "NORAD_CAT_ID": 29808, "ELEMENT_SET_NO": 999, "REV_AT_EPOCH": 98444, "BSTAR": 0.016995, "MEAN_MOTION_DOT": 0.00571206, "MEAN_MOTION_DDOT": 0}, "tle": {"line1": "1 29808U 99025DA  25361.05451178  .00571206  00000+0  16995-1 0  9991", "line2": "2 29808  99.0109 282.3405 0019864  82.7700 290.7584 15.32160948984446"}}, "geometry": {"type": "Point", "coordinates": [-175.1475551204932, 80.89784665712746]}}, {"type": "Feature", "properties": {"norad_id": 29809, "name": "FENGYUN 1C DEB", "group": "fengyun-1c-debris", "lat": 69.10510899605127, "lon": 169.7282215545466, "alt_km": 808.322325546138, "timestamp": "2025-12-27T09:28:56.747804+00:00", "meta": {"OBJECT_NAME": "FENGYUN 1C DEB", "OBJECT_ID": "1999-025DB", "EPOCH": "2025-12-27T04:05:16.874016", "MEAN_MOTION": 14.4663242, "ECCENTRICITY": 0.011531, "INCLINATION": 98.8622, "RA_OF_ASC_NODE": 325.3706, "ARG_OF_PERICENTER": 306.6166, "MEAN_ANOMALY": 72.0698, "EPHEMERIS_TYPE": 0, "CLASSIFICATION_TYPE": "U", "NORAD_CAT_ID": 29809, "ELEMENT_SET_NO": 999, "REV_AT_EPOCH": 99676, "BSTAR": 0.00041077, "MEAN_MOTION_DOT": 1.556e-05, "MEAN_MOTION_DDOT": 0}, "tle": {"line1": "1 29809U 99025DB  25361.17033419  .00001556  00000+0  41077-3 0  9996", "line2": "2 29809  98.8622 325.3706 0115310 306.6166  72.0698 14.46632420996761"}}, "geometry": {"type": "Point", "coordinates": [169.7282215545466, 69.10510899605127]}}, {"type": "Feature", "properties": {"norad_id": 29810, "name": "FENGYUN 1C DEB", "group": "fengyun-1c-debris", "lat": -66.89934330999304, "lon": 61.37616783657497, "alt_km": 768.2008784146801, "timestamp": "2025-12-27T09:28:56.747814+00:00", "meta": {"OBJECT_NAME": "FENGYUN 1C DEB", "OBJECT_ID": "1999-025DC", "EPOCH": "2025-12-27T01:32:13.349760", "MEAN_MOTION": 14.29149903, "ECCENTRICITY": 0.0066287, "INCLINATION": 99.2052, "RA_OF_ASC_NODE": 38.6825, "ARG_OF_PERICENTER": 337.6385, "MEAN_ANOMALY": 51.9055, "EPHEMERIS_TYPE": 0, "CLASSIFICATION_TYPE": "U", "NORAD_CAT_ID": 29810, "ELEMENT_SET_NO": 999, "REV_AT_EPOCH": 98582, "BSTAR": 0.00029472, "MEAN_MOTION_DOT": 7.16e-06, "MEAN_MOTION_DDOT": 0}, "tle": {"line1": "1 29810U 99025DC  25361.06404340  .00000716  00000+0  29472-3 0  9993", "line2": "2 29810  99.2052  38.6825 0066287 337.6385  51.9055 14.29149903985824"}}, "geometry": {"type": "Point", "coordinates": [61.37616783657497, -66.89934330999304]}}, {"type": "Feature", "properties": {"norad_id": 29812, "name": "FENGYUN 1C DEB", "group": "fengyun-1c-debris", "lat": 1.7244725722320802, "lon": 9.269604603567384, "alt_km": 920.9719047897079, "timestamp": "2025-12-27T09:28:56.747824+00:00", "meta": {"OBJECT_NAME": "FENGYUN 1C DEB", "OBJECT_ID": "1999-025DE", "EPOCH": "2025-12-25T12:21:49.956192", "MEAN_MOTION": 14.02030544, "ECCENTRICITY": 0.0143663, "INCLINATION": 98.3499, "RA_OF_ASC_NODE": 187.2934, "ARG_OF_PERICENTER": 291.8261, "MEAN_ANOMALY": 124.5352, "EPHEMERIS_TYPE": 0, "CLASSIFICATION_TYPE": "U", "NORAD_CAT_ID": 29812, "ELEMENT_SET_NO": 999, "REV_AT_EPOCH": 96351, "BSTAR": 0.0010333, "MEAN_MOTION_DOT": 1.686e-05, "MEAN_MOTION_DDOT": 0}, "tle": {"line1": "1 29812U 99025DE  25359.51516153  .00001686  00000+0  10333-2 0  9990", "line2": "2 29812  98.3499 187.2934 0143663 291.8261 124.5352 14.02030544963511"}}, "geometry": {"type": "Point", "coordinates": [9.269604603567384, 1.7244725722320802]}}, {"type": "Feature", "properties": {"norad_id": 29813, "name": "FENGYUN 1C DEB", "group": "fengyun-1c-debris", "lat": -21.859321849646197, "lon": -162.73141776661268, "alt_km": 858.1591808008134, "timestamp": "2025-12-27T09:28:56.747834+00:00", "meta": {"OBJECT_NAME": "FENGYUN 1C DEB", "OBJECT_ID": "1999-025DF", "EPOCH": "2025-12-27T00:08:50.544384", "MEAN_MOTION": 14.09454814, "ECCENTRICITY": 0.0012466, "INCLINATION": 98.7267, "RA_OF_ASC_NODE": 20.4244, "ARG_OF_PERICENTER": 180.6469, "MEAN_ANOMALY": 208.8144, "EPHEMERIS_TYPE": 0, "CLASSIFICATION_TYPE": "U", "NORAD_CAT_ID": 29813, "ELEMENT_SET_NO": 999, "REV_AT_EPOCH": 97461, "BSTAR": 0.00010299, "MEAN_MOTION_DOT": 1.37e-06, "MEAN_MOTION_DDOT": 0}, "tle": {"line1": "1 29813U 99025DF  25361.00614056  .00000137  00000+0  10299-3 0  9991", "line2": "2 29813  98.7267  20.4244 0012466 180.6469 208.8144 14.09454814974617"}}, "geometry": {"type": "Point", "coordinates": [-162.73141776661268, -21.859321849646197]}}, {"type": "Feature", "properties": {"norad_id": 29815, "name": "FENGYUN 1C DEB", "group": "fengyun-1c-debris", "lat": 18.17596732235298, "lon": -167.7466189146294, "alt_km": 639.3941978371913, "timestamp": "2025-12-27T09:28:56.747844+00:00", "meta": {"OBJECT_NAME": "FENGYUN 1C DEB", "OBJECT_ID": "1999-025DH", "EPOCH": "2025-12-27T00:33:46.584576", "MEAN_MOTION": 14.63808133, "ECCENTRICITY": 0.018414, "INCLINATION": 98.0563, "RA_OF_ASC_NODE": 9.2245, "ARG_OF_PERICENTER": 90.4762, "MEAN_ANOMALY": 271.7543, "EPHEMERIS_TYPE": 0, "CLASSIFICATION_TYPE": "U", "NORAD_CAT_ID": 29815, "ELEMENT_SET_NO": 999, "REV_AT_EPOCH": 60, "BSTAR": 0.00065539, "MEAN_MOTION_DOT": 4.327e-05, "MEAN_MOTION_DDOT": 0}, "tle": {"line1": "1 29815U 99025DH  25361.02345584  .00004327  00000+0  65539-3 0  9994", "line2": "2 29815  98.0563   9.2245 0184140  90.4762 271.7543 14.63808133   608"}}, "geometry": {"type": "Point", "coordinates": [-167.7466189146294, 18.17596732235298]}}, {"type": "Feature", "properties": {"norad_id": 29816, "name": "FENGYUN 1C DEB", "group": "fengyun-1c-debris", "lat": 22.14726739610856, "lon": -141.44649828458117, "alt_km": 800.7068037105928, "timestamp": "2025-12-27T09:28:56.747854+00:00", "meta": {"OBJECT_NAME": "FENGYUN 1C DEB", "OBJECT_ID": "1999-025DJ", "EPOCH": "2025-12-27T04:56:29.251104", "MEAN_MOTION": 14.44418564, "ECCENTRICITY": 0.0238044, "INCLINATION": 98.9924, "RA_OF_ASC_NODE": 222.0487, "ARG_OF_PERICENTER": 134.0608, "MEAN_ANOMALY": 347.7488, "EPHEMERIS_TYPE": 0, "CLASSIFICATION_TYPE": "U", "NORAD_CAT_ID": 29816, "ELEMENT_SET_NO": 999, "REV_AT_EPOCH": 98396, "BSTAR": 0.00086452, "MEAN_MOTION_DOT": 4.163e-05, "MEAN_MOTION_DDOT": 0}, "tle": {"line1": "1 29816U 99025DJ  25361.20589411  .00004163  00000+0  86452-3 0  9999", "line2": "2 29816  98.9924 222.0487 0238044 134.0608 347.7488 14.44418564983964"}}, "geometry": {"type": "Point", "coordinates": [-141.44649828458117, 22.14726739610856]}}, {"type": "Feature", "properties": {"norad_id": 29817, "name": "FENGYUN 1C DEB", "group": "fengyun-1c-debris", "lat": 1.6072392231044488, "lon": 170.22103789378784, "alt_km": 855.0694094436676, "timestamp": "2025-12-27T09:28:56.747864+00:00", "meta": {"OBJECT_NAME": "FENGYUN 1C DEB", "OBJECT_ID": "1999-025DK", "EPOCH": "2025-12-26T22:42:33.395904", "MEAN_MOTION": 14.14270965, "ECCENTRICITY": 0.0011535, "INCLINATION": 98.5586, "RA_OF_ASC_NODE": 349.5489, "ARG_OF_PERICENTER": 335.0088, "MEAN_ANOMALY": 79.1661, "EPHEMERIS_TYPE": 0, "CLASSIFICATION_TYPE": "U", "NORAD_CAT_ID": 29817, "ELEMENT_SET_NO": 999, "REV_AT_EPOCH": 97596, "BSTAR": 0.00039568, "MEAN_MOTION_DOT": 7.14e-06, "MEAN_MOTION_DDOT": 0}, "tle": {"line1": "1 29817U 99025DK  25360.94621986  .00000714  00000+0  39568-3 0  9998", "line2": "2 29817  98.5586 349.5489 0011535 335.0088  79.1661 14.14270965975969"}}, "geometry": {"type": "Point", "coordinates": [170.22103789378784, 1.6072392231044488]}}, {"type": "Feature", "properties": {"norad_id": 29818, "name": "FENGYUN 1C DEB", "group": "fengyun-1c-debris", "lat": 58.344990095790884, "lon": 72.55345097042256, "alt_km": 931.5739154889552, "timestamp": "2025-12-27T09:28:56.747874+00:00", "meta": {"OBJECT_NAME": "FENGYUN 1C DEB", "OBJECT_ID": "1999-025DL", "EPOCH": "2025-12-27T04:21:17.786304", "MEAN_MOTION": 14.04514111, "ECCENTRICITY": 0.0114524, "INCLINATION": 98.7205, "RA_OF_ASC_NODE": 237.9329, "ARG_OF_PERICENTER": 345.3748, "MEAN_ANOMALY": 134.5539, "EPHEMERIS_TYPE": 0, "CLASSIFICATION_TYPE": "U", "NORAD_CAT_ID": 29818, "ELEMENT_SET_NO": 999, "REV_AT_EPOCH": 97012, "BSTAR": 0.00036612, "MEAN_MOTION_DOT": 5.77e-06, "MEAN_MOTION_DDOT": 0}, "tle": {"line1": "1 29818U 99025DL  25361.18145586  .00000577  00000+0  36612-3 0  9997", "line2": "2 29818  98.7205 237.9329 0114524 345.3748 134.5539 14.04514111970128"}}, "geometry": {"type": "Point", "coordinates": [72.55345097042256, 58.344990095790884]}}, {"type": "Feature", "properties": {"norad_id": 29819, "name": "FENGYUN 1C DEB", "group": "fengyun-1c-debris", "lat": 65.52509192316502, "lon": -175.72722321356633, "alt_km": 868.9466405623762, "timestamp": "2025-12-27T09:28:56.747885+00:00", "meta": {"OBJECT_NAME": "FENGYUN 1C DEB", "OBJECT_ID": "1999-025DM", "EPOCH": "2025-12-27T04:08:58.255872", "MEAN_MOTION": 14.02218315, "ECCENTRICITY": 0.0191512, "INCLINATION": 98.7348, "RA_OF_ASC_NODE": 344.3203, "ARG_OF_PERICENTER": 26.8671, "MEAN_ANOMALY": 42.7891, "EPHEMERIS_TYPE": 0, "CLASSIFICATION_TYPE": "U", "NORAD_CAT_ID": 29819, "ELEMENT_SET_NO": 999, "REV_AT_EPOCH": 96822, "BSTAR": 0.00040328, "MEAN_MOTION_DOT": 6.84e-06, "MEAN_MOTION_DDOT": 0}, "tle": {"line1": "1 29819U 99025DM  25361.17289648  .00000684  00000+0  40328-3 0  9993", "line2": "2 29819  98.7348 344.3203 0191512  26.8671  42.7891 14.02218315968223"}}, "geometry": {"type": "Point", "coordinates": [-175.72722321356633, 65.52509192316502]}}]}